{"type":"FeatureCollection","features":[{"geometry":{"coordinates":[[[-48.9437578,-16.2924605],[-48.9432697,-16.2925569],[-48.9433174,-16.2927589],[-48.9435353,-16.2927142],[-48.9435553,-16.2928079],[-48.9433407,-16.2928481],[-48.9433847,-16.2930691],[-48.9438749,-16.292979],[-48.9437578,-16.2924605]]],"crs":{"properties":{"name":"EPSG:4326"},"type":"name"},"type":"MultiLineString"},"properties":{"felt:color":"#C93535","felt:hasLongDescription":false,"felt:id":"j9BAxM5bzRZaiGQQG9Ap9AZFA","felt:locked":false,"felt:ordering":1755642651743622,"felt:parentId":"4tWJCklUQKyxGynqoM8b9BC","felt:radiusDisplayAngle":90,"felt:routeMode":"NONE","felt:showEndcaps":false,"felt:showLength":false,"felt:strokeOpacity":1,"felt:strokeStyle":"solid","felt:strokeWidth":4,"felt:type":"Path","felt:widthScale":1},"type":"Feature"},{"geometry":{"coordinates":[[[-48.9438,-16.2929925],[-48.9437819,-16.2929046],[-48.9438555,-16.2928905],[-48.9438748,-16.2929788],[-48.9438,-16.2929925]]],"crs":{"properties":{"name":"EPSG:4326"},"type":"name"},"type":"Polygon"},"properties":{"felt:color":"#C93535","felt:hasLongDescription":false,"felt:id":"70BsGO1WSBWoG5wUgshpCB","felt:locked":false,"felt:ordering":1755642715881100,"felt:parentId":"4tWJCklUQKyxGynqoM8b9BC","felt:radiusDisplayAngle":90,"felt:type":"Polygon","felt:widthScale":1},"type":"Feature"},{"geometry":{"coordinates":[[[-48.9437263,-16.2930063],[-48.9437082,-16.2929184],[-48.9437818,-16.2929043],[-48.9437998,-16.2929922],[-48.9437263,-16.2930063]]],"crs":{"properties":{"name":"EPSG:4326"},"type":"name"},"type":"Polygon"},"properties":{"felt:color":"#C93535","felt:hasLongDescription":false,"felt:id":"fi9B29BpQnSLuWHX6FVkH8BD","felt:locked":false,"felt:ordering":1755642741188098,"felt:parentId":"4tWJCklUQKyxGynqoM8b9BC","felt:radiusDisplayAngle":90,"felt:type":"Polygon","felt:widthScale":1},"type":"Feature"},{"geometry":{"coordinates":[[[-48.9436193,-16.2928872],[-48.9436012,-16.2927993],[-48.9436748,-16.2927852],[-48.9436917,-16.2928736],[-48.9436193,-16.2928872]]],"crs":{"properties":{"name":"EPSG:4326"},"type":"name"},"type":"Polygon"},"properties":{"felt:color":"#C93535","felt:hasLongDescription":false,"felt:id":"HcMIxJA4SRu8KOuGTRQ09AA","felt:locked":false,"felt:ordering":1755642880133502,"felt:parentId":"4tWJCklUQKyxGynqoM8b9BC","felt:radiusDisplayAngle":90,"felt:type":"Polygon","felt:widthScale":1},"type":"Feature"},{"geometry":{"coordinates":[[[-48.9436923,-16.2928733],[-48.9436742,-16.2927854],[-48.9437478,-16.2927713],[-48.9437654,-16.2928585],[-48.9436929,-16.2928725],[-48.9436923,-16.2928733]]],"crs":{"properties":{"name":"EPSG:4326"},"type":"name"},"type":"Polygon"},"properties":{"felt:color":"#C93535","felt:hasLongDescription":false,"felt:id":"ESSLFiBrSwSqLsDoDbtStD","felt:locked":false,"felt:ordering":1755642885833048,"felt:parentId":"4tWJCklUQKyxGynqoM8b9BC","felt:radiusDisplayAngle":90,"felt:type":"Polygon","felt:widthScale":1},"type":"Feature"},{"geometry":{"coordinates":[[[-48.943765,-16.2928583],[-48.9437478,-16.2927715],[-48.9437853,-16.2927635],[-48.9438037,-16.2928511],[-48.943765,-16.2928583]]],"crs":{"properties":{"name":"EPSG:4326"},"type":"name"},"type":"Polygon"},"properties":{"felt:color":"#C93535","felt:hasLongDescription":false,"felt:id":"GYWT4LSURs9BvnqYo9Bl131D","felt:locked":false,"felt:ordering":1755642997546824,"felt:parentId":"4tWJCklUQKyxGynqoM8b9BC","felt:radiusDisplayAngle":90,"felt:type":"Polygon","felt:widthScale":1},"type":"Feature"},{"geometry":{"coordinates":[[[-48.9438036,-16.292851],[-48.9437856,-16.2927635],[-48.9438249,-16.2927553],[-48.9438441,-16.2928436],[-48.9438036,-16.292851]]],"crs":{"properties":{"name":"EPSG:4326"},"type":"name"},"type":"Polygon"},"properties":{"felt:color":"#C93535","felt:hasLongDescription":false,"felt:id":"X0pnIDyPShe9CNmZ44mC9BfD","felt:locked":false,"felt:ordering":1755643031889191,"felt:parentId":"4tWJCklUQKyxGynqoM8b9BC","felt:radiusDisplayAngle":90,"felt:type":"Polygon","felt:widthScale":1},"type":"Feature"},{"geometry":{"coordinates":[[[-48.9435837,-16.2927083],[-48.9435656,-16.2926204],[-48.9436392,-16.2926063],[-48.9436575,-16.2926942],[-48.9435837,-16.2927083]]],"crs":{"properties":{"name":"EPSG:4326"},"type":"name"},"type":"Polygon"},"properties":{"felt:color":"#C93535","felt:hasLongDescription":false,"felt:id":"DD5SVHy2TI2gm5B6TtDKWD","felt:locked":false,"felt:ordering":1755643066065252,"felt:parentId":"4tWJCklUQKyxGynqoM8b9BC","felt:radiusDisplayAngle":90,"felt:type":"Polygon","felt:widthScale":1},"type":"Feature"},{"geometry":{"coordinates":[[[-48.9436574,-16.2926943],[-48.9436393,-16.2926064],[-48.9437129,-16.2925923],[-48.9437311,-16.2926807],[-48.9436574,-16.2926943]]],"crs":{"properties":{"name":"EPSG:4326"},"type":"name"},"type":"Polygon"},"properties":{"felt:color":"#C93535","felt:hasLongDescription":false,"felt:id":"0DuTqu0tShmDKt9AFt1rJyA","felt:locked":false,"felt:ordering":1755643070579507,"felt:parentId":"4tWJCklUQKyxGynqoM8b9BC","felt:radiusDisplayAngle":90,"felt:type":"Polygon","felt:widthScale":1},"type":"Feature"},{"geometry":{"coordinates":[[[-48.943731,-16.2926802],[-48.9437129,-16.2925923],[-48.9437849,-16.2925796],[-48.9438034,-16.2926666],[-48.943731,-16.2926802]]],"crs":{"properties":{"name":"EPSG:4326"},"type":"name"},"type":"Polygon"},"properties":{"felt:color":"#C93535","felt:hasLongDescription":false,"felt:id":"9BOVjiuttSeWbZMIwBFm2vB","felt:locked":false,"felt:ordering":1755643075169334,"felt:parentId":"4tWJCklUQKyxGynqoM8b9BC","felt:radiusDisplayAngle":90,"felt:type":"Polygon","felt:widthScale":1},"type":"Feature"},{"geometry":{"coordinates":[[[-48.9434629,-16.2927291],[-48.9434453,-16.2926406],[-48.9435192,-16.292626],[-48.9435361,-16.2927144],[-48.9434629,-16.2927291]]],"crs":{"properties":{"name":"EPSG:4326"},"type":"name"},"type":"Polygon"},"properties":{"felt:color":"#C93535","felt:hasLongDescription":false,"felt:id":"TBv6ub9AHQBK3Kc9BKQS0MMC","felt:locked":false,"felt:ordering":1755643081170504,"felt:parentId":"4tWJCklUQKyxGynqoM8b9BC","felt:radiusDisplayAngle":90,"felt:type":"Polygon","felt:widthScale":1},"type":"Feature"},{"geometry":{"coordinates":[[[-48.9433899,-16.2927439],[-48.9433717,-16.292655],[-48.9434451,-16.2926408],[-48.9434627,-16.2927293],[-48.9433899,-16.2927439]]],"crs":{"properties":{"name":"EPSG:4326"},"type":"name"},"type":"Polygon"},"properties":{"felt:color":"#C93535","felt:hasLongDescription":false,"felt:id":"7sTp5AoWTleiRrxDE7qL9CD","felt:locked":false,"felt:ordering":1755643089503178,"felt:parentId":"4tWJCklUQKyxGynqoM8b9BC","felt:radiusDisplayAngle":90,"felt:type":"Polygon","felt:widthScale":1},"type":"Feature"},{"geometry":{"coordinates":[[[-48.9433173,-16.2927576],[-48.9432966,-16.2926699],[-48.9433718,-16.292655],[-48.9433897,-16.292744],[-48.9433173,-16.2927576]]],"crs":{"properties":{"name":"EPSG:4326"},"type":"name"},"type":"Polygon"},"properties":{"felt:color":"#C93535","felt:hasLongDescription":false,"felt:id":"cJdaEIg7Qpe0eiZS4QLx5D","felt:locked":false,"felt:ordering":1755643095478269,"felt:parentId":"4tWJCklUQKyxGynqoM8b9BC","felt:radiusDisplayAngle":90,"felt:type":"Polygon","felt:widthScale":1},"type":"Feature"},{"geometry":{"coordinates":[[[-48.9432905,-16.2926444],[-48.9432696,-16.2925573],[-48.9433475,-16.2925415],[-48.9433656,-16.2926303],[-48.9432905,-16.2926444]]],"crs":{"properties":{"name":"EPSG:4326"},"type":"name"},"type":"Polygon"},"properties":{"felt:color":"#C93535","felt:hasLongDescription":false,"felt:id":"H9CfYMs6bTOa29CaB6rX7BWD","felt:locked":false,"felt:ordering":1755643124020512,"felt:parentId":"4tWJCklUQKyxGynqoM8b9BC","felt:radiusDisplayAngle":90,"felt:type":"Polygon","felt:widthScale":1},"type":"Feature"},{"geometry":{"coordinates":[[[-48.9437111,-16.2929261],[-48.9436381,-16.2929396],[-48.9436522,-16.2930201]]],"crs":{"properties":{"name":"EPSG:4326"},"type":"name"},"type":"MultiLineString"},"properties":{"felt:color":"#C93535","felt:hasLongDescription":false,"felt:id":"gT8DzpVLS6SQxX9BcjIbm4A","felt:locked":false,"felt:ordering":1755643125424468,"felt:parentId":"4tWJCklUQKyxGynqoM8b9BC","felt:radiusDisplayAngle":90,"felt:routeMode":"NONE","felt:showEndcaps":false,"felt:showLength":false,"felt:strokeOpacity":1,"felt:strokeStyle":"solid","felt:strokeWidth":4,"felt:type":"Path","felt:widthScale":1},"type":"Feature"},{"geometry":{"coordinates":[[[-48.9433658,-16.2926301],[-48.9433475,-16.2925415],[-48.9434192,-16.2925277],[-48.9434382,-16.2926165],[-48.9433658,-16.2926301]]],"crs":{"properties":{"name":"EPSG:4326"},"type":"name"},"type":"Polygon"},"properties":{"felt:color":"#C93535","felt:hasLongDescription":false,"felt:id":"sJhr4ECdS5Wm7GjhWdff9AD","felt:locked":false,"felt:ordering":1755643128232379,"felt:parentId":"4tWJCklUQKyxGynqoM8b9BC","felt:radiusDisplayAngle":90,"felt:type":"Polygon","felt:widthScale":1},"type":"Feature"},{"geometry":{"coordinates":[[[-48.9435563,-16.2925906],[-48.9435382,-16.2925027],[-48.9436118,-16.2924886],[-48.9436299,-16.2925776],[-48.9435563,-16.2925906]]],"crs":{"properties":{"name":"EPSG:4326"},"type":"name"},"type":"Polygon"},"properties":{"felt:color":"#C93535","felt:hasLongDescription":false,"felt:id":"0PQozdlJS9BmIk5M9CU19BlpA","felt:locked":false,"felt:ordering":1755643132707775,"felt:parentId":"4tWJCklUQKyxGynqoM8b9BC","felt:radiusDisplayAngle":90,"felt:type":"Polygon","felt:widthScale":1},"type":"Feature"},{"geometry":{"coordinates":[[[-48.9436296,-16.2925778],[-48.9436115,-16.2924899],[-48.9436851,-16.2924758],[-48.943702,-16.2925642],[-48.9436296,-16.2925778]]],"crs":{"properties":{"name":"EPSG:4326"},"type":"name"},"type":"Polygon"},"properties":{"felt:color":"#C93535","felt:hasLongDescription":false,"felt:id":"AZqJtpRqT6GD2iNoOtjk7C","felt:locked":false,"felt:ordering":1755643136170384,"felt:parentId":"4tWJCklUQKyxGynqoM8b9BC","felt:radiusDisplayAngle":90,"felt:type":"Polygon","felt:widthScale":1},"type":"Feature"},{"geometry":{"coordinates":[[[-48.9437018,-16.2925643],[-48.9436851,-16.2924751],[-48.94372,-16.292469],[-48.9437387,-16.2925569],[-48.9437018,-16.2925643]]],"crs":{"properties":{"name":"EPSG:4326"},"type":"name"},"type":"Polygon"},"properties":{"felt:color":"#C93535","felt:hasLongDescription":false,"felt:id":"Qqq3yjM8RuKN9BIiLjz9B73C","felt:locked":false,"felt:ordering":1755643150733134,"felt:parentId":"4tWJCklUQKyxGynqoM8b9BC","felt:radiusDisplayAngle":90,"felt:type":"Polygon","felt:widthScale":1},"type":"Feature"},{"geometry":{"coordinates":[[[-48.9437389,-16.2925567],[-48.9437203,-16.292469],[-48.9437577,-16.2924613],[-48.943778,-16.2925483],[-48.9437389,-16.2925567]]],"crs":{"properties":{"name":"EPSG:4326"},"type":"name"},"type":"Polygon"},"properties":{"felt:color":"#C93535","felt:hasLongDescription":false,"felt:id":"KEypNjquSYmItVZ9ByIPxsA","felt:locked":false,"felt:ordering":1755643150733234,"felt:parentId":"4tWJCklUQKyxGynqoM8b9BC","felt:radiusDisplayAngle":90,"felt:type":"Polygon","felt:widthScale":1},"type":"Feature"},{"geometry":{"coordinates":[[[-48.9435846,-16.2927079],[-48.9435865,-16.2927159],[-48.9437639,-16.2926821],[-48.9437794,-16.2927561],[-48.9435997,-16.2927897],[-48.9436015,-16.2927995],[-48.9438247,-16.2927553]]],"crs":{"properties":{"name":"EPSG:4326"},"type":"name"},"type":"MultiLineString"},"properties":{"felt:color":"#C93535","felt:hasLongDescription":false,"felt:id":"3lkCbnVTTbCMHIM4twn0mB","felt:locked":false,"felt:ordering":1755643161701415,"felt:parentId":"4tWJCklUQKyxGynqoM8b9BC","felt:radiusDisplayAngle":90,"felt:routeMode":"NONE","felt:showEndcaps":false,"felt:showLength":false,"felt:strokeOpacity":1,"felt:strokeStyle":"solid","felt:strokeWidth":4,"felt:type":"Path","felt:widthScale":1},"type":"Feature"},{"geometry":{"coordinates":[[[-48.9436001,-16.2927747],[-48.9437568,-16.2927443],[-48.9437475,-16.2927062],[-48.9435911,-16.2927361]]],"crs":{"properties":{"name":"EPSG:4326"},"type":"name"},"type":"MultiLineString"},"properties":{"felt:color":"#C93535","felt:hasLongDescription":false,"felt:id":"jeZfbgS7TBe6Bz9B4HOUU9BD","felt:locked":false,"felt:ordering":1755643187073169,"felt:parentId":"4tWJCklUQKyxGynqoM8b9BC","felt:radiusDisplayAngle":90,"felt:routeMode":"NONE","felt:showEndcaps":false,"felt:showLength":false,"felt:strokeOpacity":1,"felt:strokeStyle":"solid","felt:strokeWidth":4,"felt:type":"Path","felt:widthScale":1},"type":"Feature"},{"geometry":{"coordinates":[[[-48.9434845,-16.2925171],[-48.9434984,-16.2925748],[-48.9434332,-16.2925882]]],"crs":{"properties":{"name":"EPSG:4326"},"type":"name"},"type":"MultiLineString"},"properties":{"felt:color":"#C93535","felt:hasLongDescription":false,"felt:id":"zHVwa5MlS16eNe9CdA4q3WB","felt:locked":false,"felt:ordering":1755643206567284,"felt:parentId":"4tWJCklUQKyxGynqoM8b9BC","felt:radiusDisplayAngle":90,"felt:routeMode":"NONE","felt:showEndcaps":false,"felt:showLength":false,"felt:strokeOpacity":1,"felt:strokeStyle":"solid","felt:strokeWidth":4,"felt:type":"Path","felt:widthScale":1},"type":"Feature"},{"geometry":{"coordinates":[[[-48.9435557,-16.2928078],[-48.943578,-16.2929064],[-48.9435826,-16.2929299],[-48.9436182,-16.2929227],[-48.9436219,-16.2929427],[-48.9436375,-16.2929406]]],"crs":{"properties":{"name":"EPSG:4326"},"type":"name"},"type":"MultiLineString"},"properties":{"felt:color":"#C93535","felt:hasLongDescription":false,"felt:id":"2X9B4B74rR2aiygNz3JGGuB","felt:locked":false,"felt:ordering":1755643356948820,"felt:parentId":"4tWJCklUQKyxGynqoM8b9BC","felt:radiusDisplayAngle":90,"felt:routeMode":"NONE","felt:showEndcaps":false,"felt:showLength":false,"felt:strokeOpacity":1,"felt:strokeStyle":"solid","felt:strokeWidth":4,"felt:type":"Path","felt:widthScale":1},"type":"Feature"}]}