{"type":"FeatureCollection","features":[{"geometry":{"coordinates":[[[-48.9434301,-16.2925884],[-48.9434992,-16.2925743]]],"crs":{"properties":{"name":"EPSG:4326"},"type":"name"},"type":"MultiLineString"},"properties":{"felt:color":"#C93535","felt:hasLongDescription":false,"felt:id":"9C3aq9BesHRkyCEO9C7g7L69CA","felt:locked":false,"felt:ordering":1755641350516726,"felt:parentId":"ZUTEYBHLTWG7B1jjGTQZ9AC","felt:radiusDisplayAngle":90,"felt:routeMode":"NONE","felt:showEndcaps":false,"felt:showLength":false,"felt:strokeOpacity":1,"felt:strokeStyle":"solid","felt:strokeWidth":3,"felt:type":"Path","felt:widthScale":1},"type":"Feature"},{"geometry":{"coordinates":[-48.9435445,-16.2928636],"crs":{"properties":{"name":"EPSG:4326"},"type":"name"},"type":"Point"},"properties":{"name":"H101/102","felt:color":"#C93535","felt:id":"0GFMNVpgTJ6xtqNJHC14iB","felt:locked":false,"felt:ordering":1755641350516745,"felt:parentId":"ZUTEYBHLTWG7B1jjGTQZ9AC","felt:radiusDisplayAngle":90,"felt:symbol":"dot","felt:type":"Place","felt:widthScale":1},"type":"Feature"},{"geometry":{"coordinates":[-48.9434202,-16.2930186],"crs":{"properties":{"name":"EPSG:4326"},"type":"name"},"type":"Point"},"properties":{"name":"H104","felt:color":"#C93535","felt:id":"tC02xpEwTAWZlKjmftFFEC","felt:locked":false,"felt:ordering":1755641350516764,"felt:parentId":"ZUTEYBHLTWG7B1jjGTQZ9AC","felt:radiusDisplayAngle":90,"felt:symbol":"dot","felt:type":"Place","felt:widthScale":1},"type":"Feature"},{"geometry":{"coordinates":[-48.9433235,-16.2925942],"crs":{"properties":{"name":"EPSG:4326"},"type":"name"},"type":"Point"},"properties":{"name":"I102","felt:color":"#C93535","felt:id":"pImzRWTMQ6WD0RIg6sNtZB","felt:locked":false,"felt:ordering":1755641350516783,"felt:parentId":"ZUTEYBHLTWG7B1jjGTQZ9AC","felt:radiusDisplayAngle":90,"felt:symbol":"dot","felt:type":"Place","felt:widthScale":1},"type":"Feature"},{"geometry":{"coordinates":[[[-48.9433849,-16.2930705],[-48.9436049,-16.29303],[-48.9438742,-16.2929793],[-48.9437588,-16.292458],[-48.9432701,-16.2925568],[-48.943317,-16.2927592],[-48.9435355,-16.2927143],[-48.943556,-16.2928077],[-48.943341,-16.292848],[-48.9433852,-16.2930708]]],"crs":{"properties":{"name":"EPSG:4326"},"type":"name"},"type":"MultiLineString"},"properties":{"felt:color":"#C93535","felt:hasLongDescription":false,"felt:id":"OYvmA68cRsSRvHidpOeLHD","felt:locked":false,"felt:ordering":1755641350516821,"felt:parentId":"ZUTEYBHLTWG7B1jjGTQZ9AC","felt:radiusDisplayAngle":90,"felt:routeMode":"NONE","felt:showEndcaps":false,"felt:showLength":false,"felt:strokeOpacity":1,"felt:strokeStyle":"solid","felt:strokeWidth":3,"felt:type":"Path","felt:widthScale":1},"type":"Feature"},{"geometry":{"coordinates":[[[-48.9433854,-16.2930707],[-48.9433673,-16.2929828],[-48.9434409,-16.2929687],[-48.9434578,-16.2930571],[-48.9433854,-16.2930707]]],"crs":{"properties":{"name":"EPSG:4326"},"type":"name"},"type":"Polygon"},"properties":{"felt:color":"#C93535","felt:hasLongDescription":false,"felt:id":"q27ELLM8Rcev5mxt0xJTMD","felt:locked":false,"felt:ordering":1755641350516840,"felt:parentId":"ZUTEYBHLTWG7B1jjGTQZ9AC","felt:radiusDisplayAngle":90,"felt:type":"Polygon","felt:widthScale":1},"type":"Feature"},{"geometry":{"coordinates":[[[-48.9434316,-16.2929224],[-48.9434143,-16.2928343],[-48.9435561,-16.2928078],[-48.9435755,-16.2928951],[-48.9434316,-16.2929224]]],"crs":{"properties":{"name":"EPSG:4326"},"type":"name"},"type":"Polygon"},"properties":{"felt:color":"#C93535","felt:hasLongDescription":false,"felt:id":"tQaVan0oSv2nd4dbDh426A","felt:locked":false,"felt:ordering":1755641350516859,"felt:parentId":"ZUTEYBHLTWG7B1jjGTQZ9AC","felt:radiusDisplayAngle":90,"felt:type":"Polygon","felt:widthScale":1},"type":"Feature"},{"geometry":{"coordinates":[[[-48.9433589,-16.2929364],[-48.9433408,-16.2928485],[-48.9434144,-16.2928344],[-48.9434313,-16.2929228],[-48.9433589,-16.2929364]]],"crs":{"properties":{"name":"EPSG:4326"},"type":"name"},"type":"Polygon"},"properties":{"felt:color":"#C93535","felt:hasLongDescription":false,"felt:id":"I9CSDGS9AcTxGNK0zqTNpl6D","felt:locked":false,"felt:ordering":1755641350516878,"felt:parentId":"ZUTEYBHLTWG7B1jjGTQZ9AC","felt:radiusDisplayAngle":90,"felt:type":"Polygon","felt:widthScale":1},"type":"Feature"},{"geometry":{"coordinates":[[[-48.9438034,-16.2928511],[-48.9437651,-16.2928583],[-48.9437479,-16.2927704],[-48.9437844,-16.2927632],[-48.9438034,-16.2928511]]],"crs":{"properties":{"name":"EPSG:4326"},"type":"name"},"type":"Polygon"},"properties":{"felt:color":"#C93535","felt:hasLongDescription":false,"felt:id":"eOZLzs5VT7mMZZpbcKW5AA","felt:locked":false,"felt:ordering":1755641350516897,"felt:parentId":"ZUTEYBHLTWG7B1jjGTQZ9AC","felt:radiusDisplayAngle":90,"felt:type":"Polygon","felt:widthScale":1},"type":"Feature"},{"geometry":{"coordinates":[[[-48.9436189,-16.2928881],[-48.9436019,-16.2927995],[-48.9436741,-16.2927848],[-48.9436923,-16.2928732],[-48.9436189,-16.2928881]]],"crs":{"properties":{"name":"EPSG:4326"},"type":"name"},"type":"Polygon"},"properties":{"felt:color":"#C93535","felt:hasLongDescription":false,"felt:id":"ajCok0dHRKiFcdG7Lb8ObD","felt:locked":false,"felt:ordering":1755641350516916,"felt:parentId":"ZUTEYBHLTWG7B1jjGTQZ9AC","felt:radiusDisplayAngle":90,"felt:type":"Polygon","felt:widthScale":1},"type":"Feature"},{"geometry":{"coordinates":[[[-48.9436923,-16.2928732],[-48.943674,-16.2927846],[-48.9437481,-16.2927707],[-48.9437651,-16.2928585],[-48.9436923,-16.2928732]]],"crs":{"properties":{"name":"EPSG:4326"},"type":"name"},"type":"Polygon"},"properties":{"felt:color":"#C93535","felt:hasLongDescription":false,"felt:id":"yyzVQiv8Td9BM0zqnIdRQQA","felt:locked":false,"felt:ordering":1755641350516935,"felt:parentId":"ZUTEYBHLTWG7B1jjGTQZ9AC","felt:radiusDisplayAngle":90,"felt:type":"Polygon","felt:widthScale":1},"type":"Feature"},{"geometry":{"coordinates":[[[-48.9437263,-16.2930065],[-48.9437091,-16.2929184],[-48.9437814,-16.292904],[-48.9437995,-16.2929933],[-48.9437263,-16.2930065]]],"crs":{"properties":{"name":"EPSG:4326"},"type":"name"},"type":"Polygon"},"properties":{"felt:color":"#C93535","felt:hasLongDescription":false,"felt:id":"p9AEGbNV9ASbmP8JcMPd6aQB","felt:locked":false,"felt:ordering":1755641350516954,"felt:parentId":"ZUTEYBHLTWG7B1jjGTQZ9AC","felt:radiusDisplayAngle":90,"felt:type":"Polygon","felt:widthScale":1},"type":"Feature"},{"geometry":{"coordinates":[[[-48.9437998,-16.2929934],[-48.9437815,-16.2929039],[-48.9438545,-16.2928912],[-48.9438741,-16.2929788],[-48.9437998,-16.2929934]]],"crs":{"properties":{"name":"EPSG:4326"},"type":"name"},"type":"Polygon"},"properties":{"felt:color":"#C93535","felt:hasLongDescription":false,"felt:id":"XzVKRVTERgSuScnKMq3BdC","felt:locked":false,"felt:ordering":1755641350516973,"felt:parentId":"ZUTEYBHLTWG7B1jjGTQZ9AC","felt:radiusDisplayAngle":90,"felt:type":"Polygon","felt:widthScale":1},"type":"Feature"},{"geometry":{"coordinates":[[[-48.9433645,-16.2926303],[-48.9433435,-16.292543],[-48.9434166,-16.2925267],[-48.9434364,-16.2926145],[-48.9433645,-16.2926303]]],"crs":{"properties":{"name":"EPSG:4326"},"type":"name"},"type":"Polygon"},"properties":{"felt:color":"#C93535","felt:id":"kICqE14WRrOrBzhd72GVDC","felt:locked":false,"felt:ordering":1755641350516992,"felt:parentId":"ZUTEYBHLTWG7B1jjGTQZ9AC","felt:radiusDisplayAngle":90,"felt:type":"Polygon","felt:widthScale":1},"type":"Feature"},{"geometry":{"coordinates":[[[-48.9432916,-16.292646],[-48.9432708,-16.2925576],[-48.9433437,-16.2925424],[-48.9433635,-16.2926302],[-48.9432916,-16.292646]]],"crs":{"properties":{"name":"EPSG:4326"},"type":"name"},"type":"Polygon"},"properties":{"felt:color":"#C93535","felt:id":"chmMdJb9ASeG0KRqKWiLnRA","felt:locked":false,"felt:ordering":1755641350517011,"felt:parentId":"ZUTEYBHLTWG7B1jjGTQZ9AC","felt:radiusDisplayAngle":90,"felt:type":"Polygon","felt:widthScale":1},"type":"Feature"},{"geometry":{"coordinates":[[[-48.9435546,-16.292499],[-48.9435675,-16.2925582],[-48.9435436,-16.2925634],[-48.9435846,-16.29271]]],"crs":{"properties":{"name":"EPSG:4326"},"type":"name"},"type":"MultiLineString"},"properties":{"felt:color":"#C93535","felt:hasLongDescription":false,"felt:id":"fOmwz1xwQFuySK30ePPO5D","felt:locked":false,"felt:ordering":1755641350517030,"felt:parentId":"ZUTEYBHLTWG7B1jjGTQZ9AC","felt:radiusDisplayAngle":90,"felt:routeMode":"NONE","felt:showEndcaps":false,"felt:showLength":false,"felt:strokeOpacity":1,"felt:strokeStyle":"solid","felt:strokeWidth":3,"felt:type":"Path","felt:widthScale":1},"type":"Feature"},{"geometry":{"coordinates":[[[-48.9435341,-16.292717],[-48.943484,-16.2925114]]],"crs":{"properties":{"name":"EPSG:4326"},"type":"name"},"type":"MultiLineString"},"properties":{"felt:color":"#C93535","felt:hasLongDescription":false,"felt:id":"DCrmrOnnRKqaNR9BAAUIfCA","felt:locked":false,"felt:ordering":1755641350517049,"felt:parentId":"ZUTEYBHLTWG7B1jjGTQZ9AC","felt:radiusDisplayAngle":90,"felt:routeMode":"NONE","felt:showEndcaps":false,"felt:showLength":false,"felt:strokeOpacity":1,"felt:strokeStyle":"solid","felt:strokeWidth":3,"felt:type":"Path","felt:widthScale":1},"type":"Feature"},{"geometry":{"coordinates":[[[-48.9435121,-16.292628],[-48.9435329,-16.2927158],[-48.943419,-16.2927374],[-48.9434011,-16.2926546],[-48.9435121,-16.292628]]],"crs":{"properties":{"name":"EPSG:4326"},"type":"name"},"type":"Polygon"},"properties":{"felt:color":"#C93535","felt:hasLongDescription":false,"felt:id":"h9A2yGcfzR12rrOG2FR7wLA","felt:locked":false,"felt:ordering":1755641350517068,"felt:parentId":"ZUTEYBHLTWG7B1jjGTQZ9AC","felt:radiusDisplayAngle":90,"felt:type":"Polygon","felt:widthScale":1},"type":"Feature"},{"geometry":{"coordinates":[[[-48.9434008,-16.2926544],[-48.94342,-16.2927384],[-48.9433169,-16.2927589],[-48.9432976,-16.2926778],[-48.9434008,-16.2926544]]],"crs":{"properties":{"name":"EPSG:4326"},"type":"name"},"type":"Polygon"},"properties":{"felt:color":"#C93535","felt:hasLongDescription":false,"felt:id":"me4hLAtoQYqr8OfNdbfgDA","felt:locked":false,"felt:ordering":1755641350517087,"felt:parentId":"ZUTEYBHLTWG7B1jjGTQZ9AC","felt:radiusDisplayAngle":90,"felt:type":"Polygon","felt:widthScale":1},"type":"Feature"},{"geometry":{"coordinates":[[[-48.9435241,-16.2925056],[-48.9435545,-16.2924997],[-48.9435619,-16.2925306],[-48.9435312,-16.2925366],[-48.9435241,-16.2925056]]],"crs":{"properties":{"name":"EPSG:4326"},"type":"name"},"type":"Polygon"},"properties":{"felt:color":"#C93535","felt:hasLongDescription":false,"felt:id":"kH0BjllOSRSnkr7dsKmVID","felt:locked":false,"felt:ordering":1755641350517106,"felt:parentId":"ZUTEYBHLTWG7B1jjGTQZ9AC","felt:radiusDisplayAngle":90,"felt:type":"Polygon","felt:widthScale":1},"type":"Feature"},{"geometry":{"coordinates":[[[-48.9438441,-16.2928429],[-48.9438037,-16.2928511],[-48.9437843,-16.2927629],[-48.9438249,-16.2927554],[-48.9438441,-16.2928429]]],"crs":{"properties":{"name":"EPSG:4326"},"type":"name"},"type":"Polygon"},"properties":{"felt:color":"#C93535","felt:hasLongDescription":false,"felt:id":"N9AzX04z6S29BMkLUWOc9BffD","felt:locked":false,"felt:ordering":1755641350517125,"felt:parentId":"ZUTEYBHLTWG7B1jjGTQZ9AC","felt:radiusDisplayAngle":90,"felt:type":"Polygon","felt:widthScale":1},"type":"Feature"},{"geometry":{"coordinates":[[[-48.9434577,-16.2930567],[-48.9434408,-16.2929687],[-48.9435822,-16.292942],[-48.9436037,-16.2930294],[-48.9434577,-16.2930567]]],"crs":{"properties":{"name":"EPSG:4326"},"type":"name"},"type":"Polygon"},"properties":{"felt:color":"#C93535","felt:hasLongDescription":false,"felt:id":"Fo1kHG7pS4yaNjreE7yBwC","felt:locked":false,"felt:ordering":1755641350517144,"felt:parentId":"ZUTEYBHLTWG7B1jjGTQZ9AC","felt:radiusDisplayAngle":90,"felt:type":"Polygon","felt:widthScale":1},"type":"Feature"},{"geometry":{"coordinates":[-48.9436966,-16.2925833],"crs":{"properties":{"name":"EPSG:4326"},"type":"name"},"type":"Point"},"properties":{"name":"Secretaria","felt:color":"#C93535","felt:id":"DoW1MuQKSDu5jfEiH6hIxC","felt:locked":false,"felt:ordering":1755641350517163,"felt:parentId":"ZUTEYBHLTWG7B1jjGTQZ9AC","felt:radiusDisplayAngle":90,"felt:symbol":"dot","felt:type":"Place","felt:widthScale":1},"type":"Feature"},{"geometry":{"coordinates":[-48.9435583,-16.2930006],"crs":{"properties":{"name":"EPSG:4326"},"type":"name"},"type":"Point"},"properties":{"name":"H105/106","felt:color":"#C93535","felt:id":"xp9Bnja6bSkSDdqiNg5qaYA","felt:locked":false,"felt:ordering":1755641350517182,"felt:parentId":"ZUTEYBHLTWG7B1jjGTQZ9AC","felt:radiusDisplayAngle":90,"felt:symbol":"dot","felt:type":"Place","felt:widthScale":1},"type":"Feature"},{"geometry":{"coordinates":[-48.9434848,-16.2926824],"crs":{"properties":{"name":"EPSG:4326"},"type":"name"},"type":"Point"},"properties":{"name":"I104","felt:color":"#C93535","felt:id":"Iax49BcEjS02KaILMKGvjJA","felt:locked":false,"felt:ordering":1755641350517201,"felt:parentId":"ZUTEYBHLTWG7B1jjGTQZ9AC","felt:radiusDisplayAngle":90,"felt:symbol":"dot","felt:type":"Place","felt:widthScale":1},"type":"Feature"},{"geometry":{"coordinates":[-48.9433726,-16.2927022],"crs":{"properties":{"name":"EPSG:4326"},"type":"name"},"type":"Point"},"properties":{"name":"I103","felt:color":"#C93535","felt:id":"uI9CbW9A6DSoqwkcitjjkbhA","felt:locked":false,"felt:ordering":1755641350517220,"felt:parentId":"ZUTEYBHLTWG7B1jjGTQZ9AC","felt:radiusDisplayAngle":90,"felt:symbol":"dot","felt:type":"Place","felt:widthScale":1},"type":"Feature"},{"geometry":{"coordinates":[-48.9433977,-16.2925792],"crs":{"properties":{"name":"EPSG:4326"},"type":"name"},"type":"Point"},"properties":{"name":"I101","felt:color":"#C93535","felt:hasLongDescription":false,"felt:id":"qctWD5DUQAu5mhfsMoyZuD","felt:locked":false,"felt:ordering":1755641350517239,"felt:parentId":"ZUTEYBHLTWG7B1jjGTQZ9AC","felt:radiusDisplayAngle":90,"felt:symbol":"dot","felt:type":"Place","felt:widthScale":1},"type":"Feature"},{"geometry":{"coordinates":[-48.9433986,-16.2928886],"crs":{"properties":{"name":"EPSG:4326"},"type":"name"},"type":"Point"},"properties":{"name":"H103","felt:color":"#C93535","felt:id":"QUW9ASq2MRAyVQ1qRg9BmuYD","felt:locked":false,"felt:ordering":1755641350517258,"felt:parentId":"ZUTEYBHLTWG7B1jjGTQZ9AC","felt:radiusDisplayAngle":90,"felt:symbol":"dot","felt:type":"Place","felt:widthScale":1},"type":"Feature"},{"geometry":{"coordinates":[-48.9436644,-16.2928434],"crs":{"properties":{"name":"EPSG:4326"},"type":"name"},"type":"Point"},"properties":{"name":"H110","felt:color":"#C93535","felt:id":"ot4P5wGKTxeXucAZmlmriB","felt:locked":false,"felt:ordering":1755641350517277,"felt:parentId":"ZUTEYBHLTWG7B1jjGTQZ9AC","felt:radiusDisplayAngle":90,"felt:symbol":"dot","felt:type":"Place","felt:widthScale":1},"type":"Feature"},{"geometry":{"coordinates":[-48.9437415,-16.2928269],"crs":{"properties":{"name":"EPSG:4326"},"type":"name"},"type":"Point"},"properties":{"name":"H109","felt:color":"#C93535","felt:id":"NBc0awwEQZeHccSHSkeFPD","felt:locked":false,"felt:ordering":1755641350517296,"felt:parentId":"ZUTEYBHLTWG7B1jjGTQZ9AC","felt:radiusDisplayAngle":90,"felt:symbol":"dot","felt:type":"Place","felt:widthScale":1},"type":"Feature"},{"geometry":{"coordinates":[-48.9438406,-16.292943],"crs":{"properties":{"name":"EPSG:4326"},"type":"name"},"type":"Point"},"properties":{"name":"H109","felt:color":"#C93535","felt:id":"AB6HcDXlQsaYw3W2dgJ9BfD","felt:locked":false,"felt:ordering":1755641350517315,"felt:parentId":"ZUTEYBHLTWG7B1jjGTQZ9AC","felt:radiusDisplayAngle":90,"felt:symbol":"dot","felt:type":"Place","felt:widthScale":1},"type":"Feature"},{"geometry":{"coordinates":[-48.9437661,-16.292956],"crs":{"properties":{"name":"EPSG:4326"},"type":"name"},"type":"Point"},"properties":{"name":"H107","felt:color":"#C93535","felt:hasLongDescription":false,"felt:id":"rt5VV0VXSHSF7fbm8KgmFB","felt:locked":false,"felt:ordering":1755641350517334,"felt:parentId":"ZUTEYBHLTWG7B1jjGTQZ9AC","felt:radiusDisplayAngle":90,"felt:symbol":"dot","felt:type":"Place","felt:widthScale":1},"type":"Feature"},{"geometry":{"coordinates":[[[-48.9438248,-16.2927552],[-48.943602,-16.2927994],[-48.9435997,-16.2927898],[-48.9437794,-16.2927559],[-48.943764,-16.2926819],[-48.9435863,-16.2927158],[-48.943584,-16.2927078]]],"crs":{"properties":{"name":"EPSG:4326"},"type":"name"},"type":"MultiLineString"},"properties":{"felt:color":"#C93535","felt:hasLongDescription":false,"felt:id":"EDNT9A4apThSBYCdQkAxH0B","felt:locked":false,"felt:ordering":1755642925447585,"felt:parentId":"ZUTEYBHLTWG7B1jjGTQZ9AC","felt:routeMode":"NONE","felt:showLength":false,"felt:strokeOpacity":1,"felt:strokeStyle":"solid","felt:strokeWidth":4,"felt:type":"Path"},"type":"Feature"}]}