{"type":"FeatureCollection","features":[{"geometry":{"coordinates":[[[-48.9433577,-16.2929366],[-48.9433409,-16.2928475],[-48.9434132,-16.2928346],[-48.9434301,-16.292923],[-48.9433577,-16.2929366]]],"crs":{"properties":{"name":"EPSG:4326"},"type":"name"},"type":"Polygon"},"properties":{"felt:color":"#C93535","felt:hasLongDescription":false,"felt:id":"52XjufP7R3W3RAQl9Col1eC","felt:locked":false,"felt:ordering":1755641350517372,"felt:parentId":"C2a09BxQASU9BA9C9AZKpuvNrC","felt:radiusDisplayAngle":90,"felt:type":"Polygon","felt:widthScale":1},"type":"Feature"},{"geometry":{"coordinates":[[[-48.9434306,-16.292923],[-48.9434125,-16.2928351],[-48.9434861,-16.292821],[-48.943503,-16.2929094],[-48.9434306,-16.292923]]],"crs":{"properties":{"name":"EPSG:4326"},"type":"name"},"type":"Polygon"},"properties":{"felt:color":"#C93535","felt:hasLongDescription":false,"felt:id":"u9BOTfVAHQAuaEtPNfQ7p5A","felt:locked":false,"felt:ordering":1755641350517391,"felt:parentId":"C2a09BxQASU9BA9C9AZKpuvNrC","felt:radiusDisplayAngle":90,"felt:type":"Polygon","felt:widthScale":1},"type":"Feature"},{"geometry":{"coordinates":[[[-48.9433849,-16.2930693],[-48.9433675,-16.2929807],[-48.9434411,-16.2929666],[-48.9434594,-16.2930554],[-48.9433849,-16.2930693]]],"crs":{"properties":{"name":"EPSG:4326"},"type":"name"},"type":"Polygon"},"properties":{"felt:color":"#C93535","felt:hasLongDescription":false,"felt:id":"tGlqcVdsS79BVtSqwQTd9CxC","felt:locked":false,"felt:ordering":1755641350517410,"felt:parentId":"C2a09BxQASU9BA9C9AZKpuvNrC","felt:radiusDisplayAngle":90,"felt:type":"Polygon","felt:widthScale":1},"type":"Feature"},{"geometry":{"coordinates":[[[-48.9435156,-16.2926277],[-48.9435355,-16.2927139],[-48.9433905,-16.2927435],[-48.9433707,-16.2926558],[-48.9435156,-16.2926277]]],"crs":{"properties":{"name":"EPSG:4326"},"type":"name"},"type":"Polygon"},"properties":{"felt:color":"#C93535","felt:hasLongDescription":false,"felt:id":"jJLI1bowQXKQEFj6dnw32A","felt:locked":false,"felt:ordering":1755641350517429,"felt:parentId":"C2a09BxQASU9BA9C9AZKpuvNrC","felt:radiusDisplayAngle":90,"felt:type":"Polygon","felt:widthScale":1},"type":"Feature"},{"geometry":{"coordinates":[[[-48.9434591,-16.2930547],[-48.943441,-16.2929668],[-48.9435146,-16.2929527],[-48.943533,-16.2930429],[-48.9434591,-16.2930547]]],"crs":{"properties":{"name":"EPSG:4326"},"type":"name"},"type":"Polygon"},"properties":{"felt:color":"#C93535","felt:hasLongDescription":false,"felt:id":"GILe8pxgSwGa6f9A1GwaRCB","felt:locked":false,"felt:ordering":1755641350517448,"felt:parentId":"C2a09BxQASU9BA9C9AZKpuvNrC","felt:radiusDisplayAngle":90,"felt:type":"Polygon","felt:widthScale":1},"type":"Feature"},{"geometry":{"coordinates":[[[-48.943533,-16.2930425],[-48.9435145,-16.292953],[-48.9435881,-16.2929389],[-48.943606,-16.2930288],[-48.943533,-16.2930425]]],"crs":{"properties":{"name":"EPSG:4326"},"type":"name"},"type":"Polygon"},"properties":{"felt:color":"#C93535","felt:hasLongDescription":false,"felt:id":"L0dstEOMQn6IScCkFhHOHA","felt:locked":false,"felt:ordering":1755641350517467,"felt:parentId":"C2a09BxQASU9BA9C9AZKpuvNrC","felt:radiusDisplayAngle":90,"felt:type":"Polygon","felt:widthScale":1},"type":"Feature"},{"geometry":{"coordinates":[[[-48.9435033,-16.2929093],[-48.9434856,-16.2928212],[-48.9435567,-16.2928082],[-48.9435757,-16.2928957],[-48.9435033,-16.2929093]]],"crs":{"properties":{"name":"EPSG:4326"},"type":"name"},"type":"Polygon"},"properties":{"felt:color":"#C93535","felt:hasLongDescription":false,"felt:id":"M49CbdOhLRbGESzhQg61w6B","felt:locked":false,"felt:ordering":1755641350517486,"felt:parentId":"C2a09BxQASU9BA9C9AZKpuvNrC","felt:radiusDisplayAngle":90,"felt:type":"Polygon","felt:widthScale":1},"type":"Feature"},{"geometry":{"coordinates":[[[-48.9438,-16.292993],[-48.9437818,-16.2929046],[-48.943855,-16.2928906],[-48.9438748,-16.2929784],[-48.9438,-16.292993]]],"crs":{"properties":{"name":"EPSG:4326"},"type":"name"},"type":"Polygon"},"properties":{"felt:color":"#C93535","felt:hasLongDescription":false,"felt:id":"bpxw86a1QBqvDh5S8qU7rB","felt:locked":false,"felt:ordering":1755641350517505,"felt:parentId":"C2a09BxQASU9BA9C9AZKpuvNrC","felt:radiusDisplayAngle":90,"felt:type":"Polygon","felt:widthScale":1},"type":"Feature"},{"geometry":{"coordinates":[[[-48.9437265,-16.2930068],[-48.9437084,-16.2929189],[-48.9437817,-16.2929045],[-48.9437996,-16.2929923],[-48.9437265,-16.2930068]]],"crs":{"properties":{"name":"EPSG:4326"},"type":"name"},"type":"Polygon"},"properties":{"felt:color":"#C93535","felt:hasLongDescription":false,"felt:id":"SAZUWkfFSrWdwpxYp5ZeVA","felt:locked":false,"felt:ordering":1755641350517524,"felt:parentId":"C2a09BxQASU9BA9C9AZKpuvNrC","felt:radiusDisplayAngle":90,"felt:type":"Polygon","felt:widthScale":1},"type":"Feature"},{"geometry":{"coordinates":[[[-48.94362,-16.2928875],[-48.9436019,-16.2927996],[-48.9436742,-16.2927855],[-48.9436924,-16.2928739],[-48.94362,-16.2928875]]],"crs":{"properties":{"name":"EPSG:4326"},"type":"name"},"type":"Polygon"},"properties":{"felt:color":"#C93535","felt:hasLongDescription":false,"felt:id":"a8h0RIt6TZa9BcpGCdo81QC","felt:locked":false,"felt:ordering":1755641350517543,"felt:parentId":"C2a09BxQASU9BA9C9AZKpuvNrC","felt:radiusDisplayAngle":90,"felt:type":"Polygon","felt:widthScale":1},"type":"Feature"},{"geometry":{"coordinates":[[[-48.9436927,-16.2928738],[-48.9436746,-16.2927859],[-48.9437472,-16.2927712],[-48.9437651,-16.2928602],[-48.9436927,-16.2928738]]],"crs":{"properties":{"name":"EPSG:4326"},"type":"name"},"type":"Polygon"},"properties":{"felt:color":"#C93535","felt:hasLongDescription":false,"felt:id":"hvGXAZ9AwQR6UhYTS5pQS9AB","felt:locked":false,"felt:ordering":1755641350517562,"felt:parentId":"C2a09BxQASU9BA9C9AZKpuvNrC","felt:radiusDisplayAngle":90,"felt:type":"Polygon","felt:widthScale":1},"type":"Feature"},{"geometry":{"coordinates":[[[-48.943559,-16.2925903],[-48.9435411,-16.2925036],[-48.9436134,-16.2924887],[-48.9436314,-16.2925767],[-48.943559,-16.2925903]]],"crs":{"properties":{"name":"EPSG:4326"},"type":"name"},"type":"Polygon"},"properties":{"felt:color":"#C93535","felt:hasLongDescription":false,"felt:id":"WFdpiK7ySyuwTeLxUBASyD","felt:locked":false,"felt:ordering":1755641350517581,"felt:parentId":"C2a09BxQASU9BA9C9AZKpuvNrC","felt:radiusDisplayAngle":90,"felt:type":"Polygon","felt:widthScale":1},"type":"Feature"},{"geometry":{"coordinates":[[[-48.9436317,-16.2925767],[-48.9436136,-16.2924888],[-48.9436872,-16.2924747],[-48.9437041,-16.2925631],[-48.9436317,-16.2925767]]],"crs":{"properties":{"name":"EPSG:4326"},"type":"name"},"type":"Polygon"},"properties":{"felt:color":"#C93535","felt:hasLongDescription":false,"felt:id":"OzuWNSY5ToKNGbrjuE6snD","felt:locked":false,"felt:ordering":1755641350517600,"felt:parentId":"C2a09BxQASU9BA9C9AZKpuvNrC","felt:radiusDisplayAngle":90,"felt:type":"Polygon","felt:widthScale":1},"type":"Feature"},{"geometry":{"coordinates":[[[-48.9435843,-16.2927089],[-48.9435662,-16.292621],[-48.9436391,-16.2926076],[-48.9436567,-16.2926953],[-48.9435843,-16.2927089]]],"crs":{"properties":{"name":"EPSG:4326"},"type":"name"},"type":"Polygon"},"properties":{"felt:color":"#C93535","felt:hasLongDescription":false,"felt:id":"wlQgCbVVSWmfjDfmi2uWXD","felt:locked":false,"felt:ordering":1755641350517619,"felt:parentId":"C2a09BxQASU9BA9C9AZKpuvNrC","felt:radiusDisplayAngle":90,"felt:type":"Polygon","felt:widthScale":1},"type":"Feature"},{"geometry":{"coordinates":[[[-48.9436569,-16.2926953],[-48.9436388,-16.2926074],[-48.9437119,-16.2925934],[-48.9437293,-16.2926817],[-48.9436569,-16.2926953]]],"crs":{"properties":{"name":"EPSG:4326"},"type":"name"},"type":"Polygon"},"properties":{"felt:color":"#C93535","felt:hasLongDescription":false,"felt:id":"z3EcPLpnQsSepyS9AfKsncD","felt:locked":false,"felt:ordering":1755641350517638,"felt:parentId":"C2a09BxQASU9BA9C9AZKpuvNrC","felt:radiusDisplayAngle":90,"felt:type":"Polygon","felt:widthScale":1},"type":"Feature"},{"geometry":{"coordinates":[[[-48.9437295,-16.2926814],[-48.9437114,-16.2925935],[-48.943785,-16.2925794],[-48.9438043,-16.2926672],[-48.9437295,-16.2926814]]],"crs":{"properties":{"name":"EPSG:4326"},"type":"name"},"type":"Polygon"},"properties":{"felt:color":"#C93535","felt:hasLongDescription":false,"felt:id":"ym9CuciLqRyaSMe22YL9A7OB","felt:locked":false,"felt:ordering":1755641350517657,"felt:parentId":"C2a09BxQASU9BA9C9AZKpuvNrC","felt:radiusDisplayAngle":90,"felt:type":"Polygon","felt:widthScale":1},"type":"Feature"},{"geometry":{"coordinates":[[[-48.9432907,-16.2926444],[-48.9432697,-16.2925573],[-48.9433459,-16.2925416],[-48.9433631,-16.2926308],[-48.9432907,-16.2926444]]],"crs":{"properties":{"name":"EPSG:4326"},"type":"name"},"type":"Polygon"},"properties":{"felt:color":"#C93535","felt:hasLongDescription":false,"felt:id":"qEIJTogfQGWqwwUPxpiJCA","felt:locked":false,"felt:ordering":1755641350517676,"felt:parentId":"C2a09BxQASU9BA9C9AZKpuvNrC","felt:radiusDisplayAngle":90,"felt:type":"Polygon","felt:widthScale":1},"type":"Feature"},{"geometry":{"coordinates":[[[-48.9433634,-16.2926308],[-48.9433458,-16.2925419],[-48.9434185,-16.2925279],[-48.9434358,-16.2926172],[-48.9433634,-16.2926308]]],"crs":{"properties":{"name":"EPSG:4326"},"type":"name"},"type":"Polygon"},"properties":{"felt:color":"#C93535","felt:hasLongDescription":false,"felt:id":"12TcJsoISy9BjrYO572o64A","felt:locked":false,"felt:ordering":1755641350517695,"felt:parentId":"C2a09BxQASU9BA9C9AZKpuvNrC","felt:radiusDisplayAngle":90,"felt:type":"Polygon","felt:widthScale":1},"type":"Feature"},{"geometry":{"coordinates":[[[-48.9433183,-16.2927581],[-48.9432979,-16.2926719],[-48.9433711,-16.2926559],[-48.9433904,-16.2927438],[-48.9433183,-16.2927581]]],"crs":{"properties":{"name":"EPSG:4326"},"type":"name"},"type":"Polygon"},"properties":{"felt:color":"#C93535","felt:hasLongDescription":false,"felt:id":"c9CaphGsVQZSaCZWXpfdLLC","felt:locked":false,"felt:ordering":1755641350517714,"felt:parentId":"C2a09BxQASU9BA9C9AZKpuvNrC","felt:radiusDisplayAngle":90,"felt:type":"Polygon","felt:widthScale":1},"type":"Feature"},{"geometry":{"coordinates":[[[-48.9438444,-16.292845],[-48.9438043,-16.2928525],[-48.9437852,-16.292765],[-48.9438242,-16.2927573],[-48.9438444,-16.292845]]],"crs":{"properties":{"name":"EPSG:4326"},"type":"name"},"type":"Polygon"},"properties":{"felt:color":"#C93535","felt:hasLongDescription":false,"felt:id":"os6ibGPoSPqDD7gpNQ5iRC","felt:locked":false,"felt:ordering":1755641350517733,"felt:parentId":"C2a09BxQASU9BA9C9AZKpuvNrC","felt:radiusDisplayAngle":90,"felt:type":"Polygon","felt:widthScale":1},"type":"Feature"},{"geometry":{"coordinates":[[[-48.9438045,-16.2928528],[-48.9437652,-16.29286],[-48.9437474,-16.2927721],[-48.9437851,-16.2927647],[-48.9438045,-16.2928528]]],"crs":{"properties":{"name":"EPSG:4326"},"type":"name"},"type":"Polygon"},"properties":{"felt:color":"#C93535","felt:hasLongDescription":false,"felt:id":"GsHde2N3R7Cu2SQ8abCcjD","felt:locked":false,"felt:ordering":1755641350517752,"felt:parentId":"C2a09BxQASU9BA9C9AZKpuvNrC","felt:radiusDisplayAngle":90,"felt:type":"Polygon","felt:widthScale":1},"type":"Feature"},{"geometry":{"coordinates":[[[-48.9437783,-16.2925485],[-48.9437378,-16.2925561],[-48.9437188,-16.2924677],[-48.9437588,-16.2924602],[-48.9437783,-16.2925485]]],"crs":{"properties":{"name":"EPSG:4326"},"type":"name"},"type":"Polygon"},"properties":{"felt:color":"#C93535","felt:hasLongDescription":false,"felt:id":"BjeMf9BixT86mF0Ptil9Bm7D","felt:locked":false,"felt:ordering":1755641350517771,"felt:parentId":"C2a09BxQASU9BA9C9AZKpuvNrC","felt:radiusDisplayAngle":90,"felt:type":"Polygon","felt:widthScale":1},"type":"Feature"},{"geometry":{"coordinates":[[[-48.9437378,-16.2925562],[-48.9437042,-16.2925633],[-48.9436864,-16.2924739],[-48.9437188,-16.2924679],[-48.9437378,-16.2925562]]],"crs":{"properties":{"name":"EPSG:4326"},"type":"name"},"type":"Polygon"},"properties":{"felt:color":"#C93535","felt:hasLongDescription":false,"felt:id":"6GJRRR41TJOPa3B2AoL2CD","felt:locked":false,"felt:ordering":1755641350517790,"felt:parentId":"C2a09BxQASU9BA9C9AZKpuvNrC","felt:radiusDisplayAngle":90,"felt:type":"Polygon","felt:widthScale":1},"type":"Feature"},{"geometry":{"coordinates":[[[-48.9432695,-16.2925569],[-48.9437588,-16.2924602],[-48.9438745,-16.292979],[-48.9433845,-16.2930692],[-48.9433405,-16.2928478],[-48.9435561,-16.2928086],[-48.9435357,-16.2927141],[-48.9433185,-16.2927584],[-48.9432695,-16.2925569]]],"crs":{"properties":{"name":"EPSG:4326"},"type":"name"},"type":"MultiLineString"},"properties":{"felt:color":"#C93535","felt:hasLongDescription":false,"felt:id":"hPje0FudT9C20sOqinDEgsD","felt:locked":false,"felt:ordering":1755641350517818,"felt:parentId":"C2a09BxQASU9BA9C9AZKpuvNrC","felt:radiusDisplayAngle":90,"felt:routeMode":"NONE","felt:showEndcaps":false,"felt:showLength":false,"felt:strokeOpacity":1,"felt:strokeStyle":"solid","felt:strokeWidth":4,"felt:type":"Path","felt:widthScale":1},"type":"Feature"},{"geometry":{"coordinates":[[[-48.94371,-16.2929265],[-48.9436381,-16.2929393],[-48.9436528,-16.2930195]]],"crs":{"properties":{"name":"EPSG:4326"},"type":"name"},"type":"MultiLineString"},"properties":{"felt:color":"#C93535","felt:hasLongDescription":false,"felt:id":"6gXdNa9AFQ0ScNawaHg73IC","felt:locked":false,"felt:ordering":1755641350517829,"felt:parentId":"C2a09BxQASU9BA9C9AZKpuvNrC","felt:radiusDisplayAngle":90,"felt:routeMode":"NONE","felt:showEndcaps":false,"felt:showLength":false,"felt:strokeOpacity":1,"felt:strokeStyle":"solid","felt:strokeWidth":4,"felt:type":"Path","felt:widthScale":1},"type":"Feature"},{"geometry":{"coordinates":[[[-48.9434309,-16.2925883],[-48.9435062,-16.2925756],[-48.9434944,-16.2925121]]],"crs":{"properties":{"name":"EPSG:4326"},"type":"name"},"type":"MultiLineString"},"properties":{"felt:color":"#C93535","felt:hasLongDescription":false,"felt:id":"s1w7gRwkTs9BdqBfuGF05XB","felt:locked":false,"felt:ordering":1755641350517840,"felt:parentId":"C2a09BxQASU9BA9C9AZKpuvNrC","felt:radiusDisplayAngle":90,"felt:routeMode":"NONE","felt:showEndcaps":false,"felt:showLength":false,"felt:strokeOpacity":1,"felt:strokeStyle":"solid","felt:strokeWidth":4,"felt:type":"Path","felt:widthScale":1},"type":"Feature"},{"geometry":{"coordinates":[[[-48.9438253,-16.2927571],[-48.9436009,-16.292799],[-48.9435997,-16.2927896],[-48.9437795,-16.2927556],[-48.9437639,-16.2926821],[-48.9435863,-16.2927159],[-48.9435846,-16.2927087]]],"crs":{"properties":{"name":"EPSG:4326"},"type":"name"},"type":"MultiLineString"},"properties":{"felt:color":"#C93535","felt:hasLongDescription":false,"felt:id":"spR7JSDgQu6XsXANT1Y2dD","felt:locked":false,"felt:ordering":1755641350517851,"felt:parentId":"C2a09BxQASU9BA9C9AZKpuvNrC","felt:radiusDisplayAngle":90,"felt:routeMode":"NONE","felt:showEndcaps":false,"felt:showLength":false,"felt:strokeOpacity":1,"felt:strokeStyle":"solid","felt:strokeWidth":4,"felt:type":"Path","felt:widthScale":1},"type":"Feature"},{"geometry":{"coordinates":[[[-48.9435997,-16.2927747],[-48.9437565,-16.2927447],[-48.9437475,-16.2927064],[-48.9435907,-16.2927364]]],"crs":{"properties":{"name":"EPSG:4326"},"type":"name"},"type":"MultiLineString"},"properties":{"felt:color":"#C93535","felt:hasLongDescription":false,"felt:id":"haQxhIL3SQ67XzN3vtKu9CC","felt:locked":false,"felt:ordering":1755641350517862,"felt:parentId":"C2a09BxQASU9BA9C9AZKpuvNrC","felt:radiusDisplayAngle":90,"felt:routeMode":"NONE","felt:showEndcaps":false,"felt:showLength":false,"felt:strokeOpacity":1,"felt:strokeStyle":"solid","felt:strokeWidth":4,"felt:type":"Path","felt:widthScale":1},"type":"Feature"},{"geometry":{"coordinates":[[[-48.9436396,-16.2929489],[-48.9436524,-16.29302],[-48.9436057,-16.2930282],[-48.9435917,-16.2929572],[-48.9436396,-16.2929489]]],"crs":{"properties":{"name":"EPSG:4326"},"type":"name"},"type":"Polygon"},"properties":{"felt:color":"#C93535","felt:hasLongDescription":false,"felt:id":"ozGXI1SISIOnromym9BX5SC","felt:locked":false,"felt:ordering":1755641350517873,"felt:parentId":"C2a09BxQASU9BA9C9AZKpuvNrC","felt:radiusDisplayAngle":90,"felt:type":"Polygon","felt:widthScale":1},"type":"Feature"},{"geometry":{"coordinates":[[[-48.9435412,-16.2925035],[-48.9435544,-16.2925651],[-48.9435065,-16.2925751],[-48.9434936,-16.2925123],[-48.9435412,-16.2925035]]],"crs":{"properties":{"name":"EPSG:4326"},"type":"name"},"type":"Polygon"},"properties":{"felt:color":"#C93535","felt:hasLongDescription":false,"felt:id":"D6faUqA5RNOLHMceP6tjiB","felt:locked":false,"felt:ordering":1755641350517884,"felt:parentId":"C2a09BxQASU9BA9C9AZKpuvNrC","felt:radiusDisplayAngle":90,"felt:type":"Polygon","felt:widthScale":1},"type":"Feature"}]}